{
  "type": "FeatureCollection",
  "features": [
    {
      "type": "Feature",
      "properties": {
        "norad_id": 31017,
        "name": "FENGYUN 1C DEB",
        "group": "fengyun-1c-debris",
        "lat": 1.0022483587469047,
        "lon": 150.98156119660183,
        "alt_km": 948.30261300446,
        "timestamp": "2025-12-10T14:53:37.371596+00:00",
        "meta_object_name": "FENGYUN 1C DEB",
        "meta_object_id": "1999-025BDK",
        "meta_epoch": "2025-12-06T04:38:35.153952",
        "meta_mean_motion": 14.08805775,
        "meta_eccentricity": 0.0113514,
        "meta_inclination": 98.68,
        "meta_ra_of_asc_node": 326.565,
        "meta_arg_of_pericenter": 8.6706,
        "meta_mean_anomaly": 49.7246,
        "meta_ephemeris_type": 0,
        "meta_classification_type": "U",
        "meta_norad_cat_id": 31017,
        "meta_element_set_no": 999,
        "meta_rev_at_epoch": 96204,
        "meta_bstar": 0.00075837839,
        "meta_mean_motion_dot": 1.346e-05,
        "meta_mean_motion_ddot": 0,
        "tle_line1": "1 31017U 99025BDK 25340.19346243  .00001346  00000+0  75838-3 0  9990",
        "tle_line2": "2 31017  98.6800 326.5650 0113514   8.6706  49.7246 14.08805775962042"
      },
      "geometry": {
        "type": "Point",
        "coordinates": [
          150.98156119660183,
          1.0022483587469047
        ]
      }
    },
    {
      "type": "Feature",
      "properties": {
        "norad_id": 31018,
        "name": "FENGYUN 1C DEB",
        "group": "fengyun-1c-debris",
        "lat": -20.31611506696294,
        "lon": 74.73358474036701,
        "alt_km": 878.8985906790995,
        "timestamp": "2025-12-10T14:53:37.371605+00:00",
        "meta_object_name": "FENGYUN 1C DEB",
        "meta_object_id": "1999-025BDL",
        "meta_epoch": "2025-12-10T04:49:22.010016",
        "meta_mean_motion": 14.16895627,
        "meta_eccentricity": 0.00594242,
        "meta_inclination": 99.0244,
        "meta_ra_of_asc_node": 70.9349,
        "meta_arg_of_pericenter": 133.0376,
        "meta_mean_anomaly": 227.5796,
        "meta_ephemeris_type": 0,
        "meta_classification_type": "U",
        "meta_norad_cat_id": 31018,
        "meta_element_set_no": 999,
        "meta_rev_at_epoch": 96019,
        "meta_bstar": 0.002573678,
        "meta_mean_motion_dot": 5.21e-05,
        "meta_mean_motion_ddot": 0,
        "tle_line1": "1 31018U 99025BDL 25344.20094919  .00005210  00000+0  25737-2 0  9993",
        "tle_line2": "2 31018  99.0244  70.9349 0059424 133.0376 227.5796 14.16895627960194"
      },
      "geometry": {
        "type": "Point",
        "coordinates": [
          74.73358474036701,
          -20.31611506696294
        ]
      }
    },
    {
      "type": "Feature",
      "properties": {
        "norad_id": 31019,
        "name": "FENGYUN 1C DEB",
        "group": "fengyun-1c-debris",
        "lat": -15.570010849461761,
        "lon": -174.27234729711586,
        "alt_km": 1197.0202739210426,
        "timestamp": "2025-12-10T14:53:37.371614+00:00",
        "meta_object_name": "FENGYUN 1C DEB",
        "meta_object_id": "1999-025BDM",
        "meta_epoch": "2025-12-06T19:46:46.488288",
        "meta_mean_motion": 11.82957686,
        "meta_eccentricity": 0.11189634,
        "meta_inclination": 98.7021,
        "meta_ra_of_asc_node": 180.7817,
        "meta_arg_of_pericenter": 294.848,
        "meta_mean_anomaly": 78.8585,
        "meta_ephemeris_type": 0,
        "meta_classification_type": "U",
        "meta_norad_cat_id": 31019,
        "meta_element_set_no": 999,
        "meta_rev_at_epoch": 55111,
        "meta_bstar": 0.0052564036,
        "meta_mean_motion_dot": 1.948e-05,
        "meta_mean_motion_ddot": 0,
        "tle_line1": "1 31019U 99025BDM 25340.82414917  .00001948  00000+0  52564-2 0  9994",
        "tle_line2": "2 31019  98.7021 180.7817 1118963 294.8480  78.8585 11.82957686551116"
      },
      "geometry": {
        "type": "Point",
        "coordinates": [
          -174.27234729711586,
          -15.570010849461761
        ]
      }
    },
    {
      "type": "Feature",
      "properties": {
        "norad_id": 31021,
        "name": "FENGYUN 1C DEB",
        "group": "fengyun-1c-debris",
        "lat": 43.02112740821461,
        "lon": 87.1437854853845,
        "alt_km": 810.8916418912368,
        "timestamp": "2025-12-10T14:53:37.371641+00:00",
        "meta_object_name": "FENGYUN 1C DEB",
        "meta_object_id": "1999-025BDP",
        "meta_epoch": "2025-11-23T02:39:04.527648",
        "meta_mean_motion": 14.74941254,
        "meta_eccentricity": 0.0268991,
        "meta_inclination": 98.348,
        "meta_ra_of_asc_node": 76.9426,
        "meta_arg_of_pericenter": 304.648,
        "meta_mean_anomaly": 52.9635,
        "meta_ephemeris_type": 0,
        "meta_classification_type": "U",
        "meta_norad_cat_id": 31021,
        "meta_element_set_no": 999,
        "meta_rev_at_epoch": 73143,
        "meta_bstar": 0.00041319973,
        "meta_mean_motion_dot": 4.94e-05,
        "meta_mean_motion_ddot": 0,
        "tle_line1": "1 31021U 99025BDP 25327.11046907  .00004940  00000+0  41320-3 0  9998",
        "tle_line2": "2 31021  98.3480  76.9426 0268991 304.6480  52.9635 14.74941254731434"
      },
      "geometry": {
        "type": "Point",
        "coordinates": [
          87.1437854853845,
          43.02112740821461
        ]
      }
    },
    {
      "type": "Feature",
      "properties": {
        "norad_id": 31022,
        "name": "FENGYUN 1C DEB",
        "group": "fengyun-1c-debris",
        "lat": -41.26245412219278,
        "lon": 39.76383469045283,
        "alt_km": 938.8284779823307,
        "timestamp": "2025-12-10T14:53:37.371650+00:00",
        "meta_object_name": "FENGYUN 1C DEB",
        "meta_object_id": "1999-025BDQ",
        "meta_epoch": "2025-12-08T10:01:50.103264",
        "meta_mean_motion": 13.90441238,
        "meta_eccentricity": 0.01098357,
        "meta_inclination": 99.5169,
        "meta_ra_of_asc_node": 225.9733,
        "meta_arg_of_pericenter": 133.3638,
        "meta_mean_anomaly": 227.6734,
        "meta_ephemeris_type": 0,
        "meta_classification_type": "U",
        "meta_norad_cat_id": 31022,
        "meta_element_set_no": 999,
        "meta_rev_at_epoch": 61948,
        "meta_bstar": 0.00064855511,
        "meta_mean_motion_dot": 8e-06,
        "meta_mean_motion_ddot": 0,
        "tle_line1": "1 31022U 99025BDQ 25342.41794101  .00000800  00000+0  64856-3 0  9995",
        "tle_line2": "2 31022  99.5169 225.9733 0109835 133.3638 227.6734 13.90441238619487"
      },
      "geometry": {
        "type": "Point",
        "coordinates": [
          39.76383469045283,
          -41.26245412219278
        ]
      }
    },
    {
      "type": "Feature",
      "properties": {
        "norad_id": 31024,
        "name": "FENGYUN 1C DEB",
        "group": "fengyun-1c-debris",
        "lat": -45.26234253361983,
        "lon": 68.6630160567638,
        "alt_km": 833.732677597849,
        "timestamp": "2025-12-10T14:53:37.371659+00:00",
        "meta_object_name": "FENGYUN 1C DEB",
        "meta_object_id": "1999-025BDS",
        "meta_epoch": "2025-12-08T00:59:52.413504",
        "meta_mean_motion": 14.20849862,
        "meta_eccentricity": 0.00749361,
        "meta_inclination": 99.0417,
        "meta_ra_of_asc_node": 255.2726,
        "meta_arg_of_pericenter": 137.9647,
        "meta_mean_anomaly": 222.7312,
        "meta_ephemeris_type": 0,
        "meta_classification_type": "U",
        "meta_norad_cat_id": 31024,
        "meta_element_set_no": 999,
        "meta_rev_at_epoch": 96637,
        "meta_bstar": 0.0004116989,
        "meta_mean_motion_dot": 8.7e-06,
        "meta_mean_motion_ddot": 0,
        "tle_line1": "1 31024U 99025BDS 25342.04157886  .00000870  00000+0  41170-3 0  9990",
        "tle_line2": "2 31024  99.0417 255.2726 0074936 137.9647 222.7312 14.20849862966371"
      },
      "geometry": {
        "type": "Point",
        "coordinates": [
          68.6630160567638,
          -45.26234253361983
        ]
      }
    },
    {
      "type": "Feature",
      "properties": {
        "norad_id": 31025,
        "name": "FENGYUN 1C DEB",
        "group": "fengyun-1c-debris",
        "lat": 61.33922514365393,
        "lon": -41.16081016668678,
        "alt_km": 726.1355728136668,
        "timestamp": "2025-12-10T14:53:37.371668+00:00",
        "meta_object_name": "FENGYUN 1C DEB",
        "meta_object_id": "1999-025BDT",
        "meta_epoch": "2025-12-07T05:28:07.771008",
        "meta_mean_motion": 14.20521805,
        "meta_eccentricity": 0.01734931,
        "meta_inclination": 98.58,
        "meta_ra_of_asc_node": 331.5793,
        "meta_arg_of_pericenter": 28.741,
        "meta_mean_anomaly": 332.3194,
        "meta_ephemeris_type": 0,
        "meta_classification_type": "U",
        "meta_norad_cat_id": 31025,
        "meta_element_set_no": 999,
        "meta_rev_at_epoch": 64287,
        "meta_bstar": 0.0012507545,
        "meta_mean_motion_dot": 3.084e-05,
        "meta_mean_motion_ddot": 0,
        "tle_line1": "1 31025U 99025BDT 25341.22786772  .00003084  00000+0  12508-2 0  9994",
        "tle_line2": "2 31025  98.5800 331.5793 0173493  28.7410 332.3194 14.20521805642873"
      },
      "geometry": {
        "type": "Point",
        "coordinates": [
          -41.16081016668678,
          61.33922514365393
        ]
      }
    }
  ]
}